[{"OBJECT_NAME":"HELIOS 1B","OBJECT_ID":"1999-064A","EPOCH":"2026-04-05T18:01:21.671328","MEAN_MOTION":14.87813356,"ECCENTRICITY":0.0001408,"INCLINATION":98.1662,"RA_OF_ASC_NODE":358.7868,"ARG_OF_PERICENTER":42.4079,"MEAN_ANOMALY":317.7245,"EPHEMERIS_TYPE":0,"CLASSIFICATION_TYPE":"U","NORAD_CAT_ID":25977,"ELEMENT_SET_NO":999,"REV_AT_EPOCH":68928,"BSTAR":0.00030063,"MEAN_MOTION_DOT":2.688e-5,"MEAN_MOTION_DDOT":0},{"OBJECT_NAME":"TERRA","OBJECT_ID":"1999-068A","EPOCH":"2026-04-05T20:16:53.919264","MEAN_MOTION":14.61045872,"ECCENTRICITY":0.0003673,"INCLINATION":97.9536,"RA_OF_ASC_NODE":148.2346,"ARG_OF_PERICENTER":95.9761,"MEAN_ANOMALY":14.7792,"EPHEMERIS_TYPE":0,"CLASSIFICATION_TYPE":"U","NORAD_CAT_ID":25994,"ELEMENT_SET_NO":999,"REV_AT_EPOCH":39904,"BSTAR":0.00013084,"MEAN_MOTION_DOT":5.98e-6,"MEAN_MOTION_DDOT":0},{"OBJECT_NAME":"SL-16 R/B","OBJECT_ID":"2000-006B","EPOCH":"2026-04-05T20:38:21.039936","MEAN_MOTION":14.15831382,"ECCENTRICITY":0.0015143,"INCLINATION":71.0042,"RA_OF_ASC_NODE":40.7037,"ARG_OF_PERICENTER":147.1819,"MEAN_ANOMALY":213.0248,"EPHEMERIS_TYPE":0,"CLASSIFICATION_TYPE":"U","NORAD_CAT_ID":26070,"ELEMENT_SET_NO":999,"REV_AT_EPOCH":35240,"BSTAR":3.421e-5,"MEAN_MOTION_DOT":2.0e-7,"MEAN_MOTION_DDOT":0},{"OBJECT_NAME":"TITAN 4B R/B","OBJECT_ID":"2000-047B","EPOCH":"2026-04-05T20:38:23.737344","MEAN_MOTION":15.09820786,"ECCENTRICITY":0.0040567,"INCLINATION":67.9898,"RA_OF_ASC_NODE":324.0966,"ARG_OF_PERICENTER":3.7161,"MEAN_ANOMALY":356.4281,"EPHEMERIS_TYPE":0,"CLASSIFICATION_TYPE":"U","NORAD_CAT_ID":26474,"ELEMENT_SET_NO":999,"REV_AT_EPOCH":39701,"BSTAR":0.00025181,"MEAN_MOTION_DOT":4.024e-5,"MEAN_MOTION_DDOT":0},{"OBJECT_NAME":"ENVISAT","OBJECT_ID":"2002-009A","EPOCH":"2026-04-05T20:35:13.615008","MEAN_MOTION":14.39047132,"ECCENTRICITY":0.0001163,"INCLINATION":98.3772,"RA_OF_ASC_NODE":48.816,"ARG_OF_PERICENTER":82.2436,"MEAN_ANOMALY":285.2809,"EPHEMERIS_TYPE":0,"CLASSIFICATION_TYPE":"U","NORAD_CAT_ID":27386,"ELEMENT_SET_NO":999,"REV_AT_EPOCH":26308,"BSTAR":7.3396e-5,"MEAN_MOTION_DOT":1.84e-6,"MEAN_MOTION_DDOT":0},{"OBJECT_NAME":"IDEFIX & ARIANE 42P R/B","OBJECT_ID":"2002-021B","EPOCH":"2026-04-05T18:20:49.872768","MEAN_MOTION":14.31046094,"ECCENTRICITY":0.0012865,"INCLINATION":98.5899,"RA_OF_ASC_NODE":34.0523,"ARG_OF_PERICENTER":105.915,"MEAN_ANOMALY":254.3451,"EPHEMERIS_TYPE":0,"CLASSIFICATION_TYPE":"U","NORAD_CAT_ID":27422,"ELEMENT_SET_NO":999,"REV_AT_EPOCH":24789,"BSTAR":0.00017388,"MEAN_MOTION_DOT":4.15e-6,"MEAN_MOTION_DDOT":0},{"OBJECT_NAME":"AQUA","OBJECT_ID":"2002-022A","EPOCH":"2026-04-05T20:20:18.864384","MEAN_MOTION":14.62044454,"ECCENTRICITY":0.0001445,"INCLINATION":98.4221,"RA_OF_ASC_NODE":63.7168,"ARG_OF_PERICENTER":114.5211,"MEAN_ANOMALY":266.6869,"EPHEMERIS_TYPE":0,"CLASSIFICATION_TYPE":"U","NORAD_CAT_ID":27424,"ELEMENT_SET_NO":999,"REV_AT_EPOCH":27270,"BSTAR":0.00029976,"MEAN_MOTION_DOT":1.455e-5,"MEAN_MOTION_DDOT":0},{"OBJECT_NAME":"CZ-4B R/B","OBJECT_ID":"2002-024C","EPOCH":"2026-04-05T17:57:51.355584","MEAN_MOTION":14.14552904,"ECCENTRICITY":0.0049212,"INCLINATION":98.8779,"RA_OF_ASC_NODE":149.0115,"ARG_OF_PERICENTER":306.8673,"MEAN_ANOMALY":162.1142,"EPHEMERIS_TYPE":0,"CLASSIFICATION_TYPE":"U","NORAD_CAT_ID":27432,"ELEMENT_SET_NO":999,"REV_AT_EPOCH":23306,"BSTAR":5.6126e-5,"MEAN_MOTION_DOT":6.4e-7,"MEAN_MOTION_DDOT":0},{"OBJECT_NAME":"MIDORI II (ADEOS-II)","OBJECT_ID":"2002-056A","EPOCH":"2026-04-05T19:48:29.452896","MEAN_MOTION":14.29307387,"ECCENTRICITY":3.19e-5,"INCLINATION":98.7816,"RA_OF_ASC_NODE":54.4987,"ARG_OF_PERICENTER":23.0104,"MEAN_ANOMALY":337.1091,"EPHEMERIS_TYPE":0,"CLASSIFICATION_TYPE":"U","NORAD_CAT_ID":27597,"ELEMENT_SET_NO":999,"REV_AT_EPOCH":21417,"BSTAR":0.00018737,"MEAN_MOTION_DOT":4.31e-6,"MEAN_MOTION_DDOT":0},{"OBJECT_NAME":"H-2A R/B","OBJECT_ID":"2002-056E","EPOCH":"2026-04-05T18:49:55.174368","MEAN_MOTION":14.33781205,"ECCENTRICITY":0.0071413,"INCLINATION":98.325,"RA_OF_ASC_NODE":55.1266,"ARG_OF_PERICENTER":80.9928,"MEAN_ANOMALY":341.0762,"EPHEMERIS_TYPE":0,"CLASSIFICATION_TYPE":"U","NORAD_CAT_ID":27601,"ELEMENT_SET_NO":999,"REV_AT_EPOCH":21799,"BSTAR":0.00017681,"MEAN_MOTION_DOT":4.64e-6,"MEAN_MOTION_DDOT":0},{"OBJECT_NAME":"CZ-4B R/B","OBJECT_ID":"2003-049C","EPOCH":"2026-04-05T13:07:09.731424","MEAN_MOTION":14.55045925,"ECCENTRICITY":0.0048731,"INCLINATION":98.6899,"RA_OF_ASC_NODE":91.5099,"ARG_OF_PERICENTER":148.5823,"MEAN_ANOMALY":211.83,"EPHEMERIS_TYPE":0,"CLASSIFICATION_TYPE":"U","NORAD_CAT_ID":28059,"ELEMENT_SET_NO":999,"REV_AT_EPOCH":19050,"BSTAR":0.00012705,"MEAN_MOTION_DOT":5.05e-6,"MEAN_MOTION_DDOT":0},{"OBJECT_NAME":"CZ-2C R/B","OBJECT_ID":"2004-012C","EPOCH":"2026-04-05T18:18:57.260736","MEAN_MOTION":15.68061193,"ECCENTRICITY":0.0013647,"INCLINATION":97.7158,"RA_OF_ASC_NODE":163.6823,"ARG_OF_PERICENTER":204.4828,"MEAN_ANOMALY":155.5786,"EPHEMERIS_TYPE":0,"CLASSIFICATION_TYPE":"U","NORAD_CAT_ID":28222,"ELEMENT_SET_NO":999,"REV_AT_EPOCH":20851,"BSTAR":0.00064531,"MEAN_MOTION_DOT":0.00072251,"MEAN_MOTION_DDOT":0},{"OBJECT_NAME":"SL-16 R/B","OBJECT_ID":"2004-021B","EPOCH":"2026-04-05T16:21:11.522304","MEAN_MOTION":14.1460092,"ECCENTRICITY":0.0005501,"INCLINATION":71.0013,"RA_OF_ASC_NODE":175.8504,"ARG_OF_PERICENTER":335.675,"MEAN_ANOMALY":24.4111,"EPHEMERIS_TYPE":0,"CLASSIFICATION_TYPE":"U","NORAD_CAT_ID":28353,"ELEMENT_SET_NO":999,"REV_AT_EPOCH":12665,"BSTAR":0.00021909,"MEAN_MOTION_DOT":3.73e-6,"MEAN_MOTION_DDOT":0},{"OBJECT_NAME":"CZ-4B R/B","OBJECT_ID":"2004-035C","EPOCH":"2026-04-05T16:05:46.377888","MEAN_MOTION":15.29570637,"ECCENTRICITY":0.003039,"INCLINATION":97.3448,"RA_OF_ASC_NODE":129.592,"ARG_OF_PERICENTER":230.5913,"MEAN_ANOMALY":129.2636,"EPHEMERIS_TYPE":0,"CLASSIFICATION_TYPE":"U","NORAD_CAT_ID":28415,"ELEMENT_SET_NO":999,"REV_AT_EPOCH":18403,"BSTAR":0.00031102,"MEAN_MOTION_DOT":8.962e-5,"MEAN_MOTION_DDOT":0},{"OBJECT_NAME":"CZ-2C R/B","OBJECT_ID":"2004-046B","EPOCH":"2026-04-05T18:16:32.495808","MEAN_MOTION":14.27003473,"ECCENTRICITY":0.0140589,"INCLINATION":98.1975,"RA_OF_ASC_NODE":9.0585,"ARG_OF_PERICENTER":74.9436,"MEAN_ANOMALY":286.7254,"EPHEMERIS_TYPE":0,"CLASSIFICATION_TYPE":"U","NORAD_CAT_ID":28480,"ELEMENT_SET_NO":999,"REV_AT_EPOCH":11236,"BSTAR":0.00011475,"MEAN_MOTION_DOT":2.7e-6,"MEAN_MOTION_DDOT":0},{"OBJECT_NAME":"ARIANE 5 R/B","OBJECT_ID":"2004-049H","EPOCH":"2026-04-05T10:40:36.043968","MEAN_MOTION":14.85320748,"ECCENTRICITY":0.00828136,"INCLINATION":98.2666,"RA_OF_ASC_NODE":264.9111,"ARG_OF_PERICENTER":264.2866,"MEAN_ANOMALY":94.8901,"EPHEMERIS_TYPE":0,"CLASSIFICATION_TYPE":"U","NORAD_CAT_ID":28499,"ELEMENT_SET_NO":999,"REV_AT_EPOCH":14976,"BSTAR":0.00015095114,"MEAN_MOTION_DOT":1.313e-5,"MEAN_MOTION_DDOT":0},{"OBJECT_NAME":"CZ-2D R/B","OBJECT_ID":"2005-024B","EPOCH":"2026-04-05T13:29:31.836192","MEAN_MOTION":15.62803961,"ECCENTRICITY":0.0001835,"INCLINATION":97.3565,"RA_OF_ASC_NODE":111.7419,"ARG_OF_PERICENTER":270.7702,"MEAN_ANOMALY":89.3346,"EPHEMERIS_TYPE":0,"CLASSIFICATION_TYPE":"U","NORAD_CAT_ID":28738,"ELEMENT_SET_NO":999,"REV_AT_EPOCH":14397,"BSTAR":0.00057455,"MEAN_MOTION_DOT":0.00051811,"MEAN_MOTION_DDOT":0}]
